      2.10          N: GNSS NAV DATA                        RINEX VERSION / TYPE
fic2rin                                 01/24/2021 00:17:20 PGM / RUN BY / DATE
                                                            END OF HEADER
 9 21  1 23 21 59 44.0-3.158431500196e-04-3.865352482535e-12 0.000000000000e+00
    2.000000000000e+00-2.187500000000e-01 4.917704842146e-09 1.374170146674e+00
   -1.862645149231e-09 1.994914258830e-03 6.258487701416e-06 5.153570413589e+03
    5.975840000000e+05 1.862645149231e-08 8.826873826954e-01-5.401670932770e-08
    9.530280051904e-01 2.536250000000e+02 1.802041074953e+00-8.161054226381e-09
    1.792931825664e-10 1.000000000000e+00 2.141000000000e+03 0.000000000000e+00
    2.400000000000e+00 0.000000000000e+00 1.396983861923e-09 2.000000000000e+00
    5.917200000000e+05 4.000000000000e+00
18 21  1 23 22 29 36.0 3.432868979871e-04 2.501110429876e-12 0.000000000000e+00
    1.300000000000e+01-8.468750000000e+01 4.207318108830e-09-8.650694836734e-01
   -4.503875970840e-06 1.185216591693e-03 6.878748536110e-06 5.153693161011e+03
    5.993760000000e+05 3.725290298462e-09-1.172213183773e+00-8.195638656616e-08
    9.665193531706e-01 2.511250000000e+02 3.037870414422e+00-7.946045270394e-09
   -1.685784505406e-10 1.000000000000e+00 2.141000000000e+03 0.000000000000e+00
    2.400000000000e+00 0.000000000000e+00-8.381903171539e-09 2.690000000000e+02
    5.922000000000e+05 4.000000000000e+00
 9 21  1 23 23 59 44.0-3.158710896969e-04-3.865352482535e-12 0.000000000000e+00
    3.800000000000e+01 1.250000000000e+00 4.869845705764e-09 2.424344549396e+00
    1.266598701477e-07 1.994803547859e-03 6.282702088356e-06 5.153570741653e+03
    6.047840000000e+05 7.450580596924e-09 8.826293165510e-01 5.215406417847e-08
    9.530294988297e-01 2.533437500000e+02 1.802113155852e+00-8.068550373224e-09
    1.325055193867e-10 1.000000000000e+00 2.141000000000e+03 0.000000000000e+00
    2.400000000000e+00 0.000000000000e+00 1.396983861923e-09 3.800000000000e+01
    5.976000000000e+05 4.000000000000e+00
25 21  1 23 23 59 44.0 6.593996658921e-05 7.844391802792e-12 0.000000000000e+00
    6.200000000000e+01 8.671875000000e+01 4.417326856537e-09-1.850935491030e+00
    4.474073648453e-06 9.699994232506e-03 7.390975952148e-06 5.153681486130e+03
    6.047840000000e+05 1.378357410431e-07 2.993157957409e+00-2.793967723846e-08
    9.627966874780e-01 2.372187500000e+02 9.357068327683e-01-7.871399303947e-09
    1.135761594744e-10 1.000000000000e+00 2.141000000000e+03 0.000000000000e+00
    2.400000000000e+00 0.000000000000e+00 5.587935447693e-09 6.200000000000e+01
    5.976000000000e+05 4.000000000000e+00
 2 21  1 24  0  0  0.0-5.692695267498e-04-4.092726157978e-12 0.000000000000e+00
    4.300000000000e+01-8.171875000000e+01 4.589476884420e-09 4.346900590429e-02
   -4.285946488380e-06 2.037087059580e-02 5.932524800301e-06 5.153598028183e+03
    0.000000000000e+00-3.576278686523e-07-1.387567285656e+00-3.166496753693e-08
    9.616073306908e-01 2.719062500000e+02-1.556884926758e+00-8.479281767549e-09
   -1.925080187317e-10 1.000000000000e+00 2.142000000000e+03 0.000000000000e+00
    2.400000000000e+00 0.000000000000e+00-1.769512891769e-08 4.300000000000e+01
   -7.200000000000e+03 4.000000000000e+00
 1 21  1 24  0  0  0.0 7.749074138701e-04-6.821210263297e-12 0.000000000000e+00
    4.600000000000e+01-9.862500000000e+01 4.033025134542e-09-2.001432004934e-01
   -5.085021257401e-06 1.029904058669e-02 6.766989827156e-06 5.153693912506e+03
    0.000000000000e+00 5.587935447693e-09-1.306280214786e+00 1.266598701477e-07
    9.828371334888e-01 2.576250000000e+02 8.202177027310e-01-8.062835849477e-09
   -2.007226466182e-10 1.000000000000e+00 2.142000000000e+03 0.000000000000e+00
    2.400000000000e+00 0.000000000000e+00 4.656612873077e-09 4.600000000000e+01
   -7.200000000000e+03 4.000000000000e+00
 5 21  1 24  0  0  0.0-3.178883343935e-05-1.023181539495e-12 0.000000000000e+00
    3.600000000000e+01-3.606250000000e+01 4.454471260894e-09 2.620513115575e+00
   -1.899898052216e-06 6.007490446791e-03 9.251758456230e-06 5.153805700302e+03
    0.000000000000e+00 5.960464477539e-08-3.027899037520e-01-1.043081283569e-07
    9.553619373794e-01 1.992187500000e+02 8.866887445224e-01-7.826397429439e-09
    3.253706958526e-10 1.000000000000e+00 2.142000000000e+03 0.000000000000e+00
    2.400000000000e+00 0.000000000000e+00-1.117587089539e-08 3.600000000000e+01
   -7.200000000000e+03 4.000000000000e+00
 3 21  1 24  0  0  0.0-6.415182724595e-05-9.890754881781e-12 0.000000000000e+00
    3.500000000000e+01-3.440625000000e+01 4.210889686172e-09-1.360195190161e+00
   -1.842156052589e-06 3.262437414378e-03 9.575858712196e-06 5.153668140411e+03
    0.000000000000e+00 1.266598701477e-07-2.676086345166e-01 4.097819328308e-08
    9.684351570401e-01 1.999062500000e+02 8.652749636839e-01-7.757823144473e-09
    3.107272287506e-10 1.000000000000e+00 2.142000000000e+03 0.000000000000e+00
    2.400000000000e+00 0.000000000000e+00 1.862645149231e-09 3.500000000000e+01
   -7.200000000000e+03 4.000000000000e+00
10 21  1 24  0  0  0.0-4.586484283209e-05-8.412825991400e-12 0.000000000000e+00
    5.000000000000e+01-3.181250000000e+01 4.100527946305e-09-2.227775433320e+00
   -1.735985279083e-06 6.410519010387e-03 9.421259164810e-06 5.153671436310e+03
    0.000000000000e+00-7.636845111847e-08-2.705453196757e-01-4.097819328308e-08
    9.683383381957e-01 2.027187500000e+02-2.610629538628e+00-7.635318041644e-09
    4.135886561991e-10 1.000000000000e+00 2.142000000000e+03 0.000000000000e+00
    2.400000000000e+00 0.000000000000e+00 2.328306436539e-09 5.000000000000e+01
   -7.200000000000e+03 4.000000000000e+00
 6 21  1 24  0  0  0.0-4.312023520470e-06 4.547473508865e-13 0.000000000000e+00
    3.300000000000e+01-9.690625000000e+01 3.910520031713e-09 1.710588851978e-01
   -5.016103386879e-06 2.265029470436e-03 6.783753633499e-06 5.153697822571e+03
    0.000000000000e+00-1.117587089539e-08-1.314537920672e+00-5.960464477539e-08
    9.823284110413e-01 2.627812500000e+02-1.106941585589e+00-7.856755836845e-09
   -1.975082270104e-10 1.000000000000e+00 2.142000000000e+03 0.000000000000e+00
    2.400000000000e+00 0.000000000000e+00 3.725290298462e-09 3.300000000000e+01
   -7.200000000000e+03 4.000000000000e+00
 8 21  1 24  0  0  0.0-7.699243724346e-06-1.364242052659e-12 0.000000000000e+00
    1.030000000000e+02 1.890625000000e+01 4.635907389865e-09 2.023980209986e+00
    1.190230250359e-06 6.126955617219e-03 2.574175596237e-06 5.153784872055e+03
    0.000000000000e+00-1.862645149231e-09-2.379613933180e+00 1.788139343262e-07
    9.683434232990e-01 3.348125000000e+02-3.666005704995e-02-8.362134030733e-09
   -7.000291590243e-11 1.000000000000e+00 2.142000000000e+03 0.000000000000e+00
    3.400000000000e+00 0.000000000000e+00 5.122274160385e-09 1.030000000000e+02
   -7.200000000000e+03 4.000000000000e+00
 7 21  1 24  0  0  0.0 3.285985440016e-05 1.409716787748e-11 0.000000000000e+00
    1.050000000000e+02 1.906250000000e+01 4.795556897051e-09-8.371478078921e-01
    1.199543476105e-06 1.435898384079e-02 8.961185812950e-06 5.153607658386e+03
    0.000000000000e+00 1.695007085800e-07 1.835559750957e+00 2.514570951462e-07
    9.517282346611e-01 2.005312500000e+02-2.355619503408e+00-8.147839390215e-09
   -3.432285825624e-10 1.000000000000e+00 2.142000000000e+03 0.000000000000e+00
    2.400000000000e+00 0.000000000000e+00-1.117587089539e-08 1.050000000000e+02
   -7.200000000000e+03 4.000000000000e+00
 4 21  1 24  0  0  0.0-1.750313676894e-04-2.842170943040e-12 0.000000000000e+00
    1.380000000000e+02 8.437500000000e-01 4.748054918403e-09 1.524232327515e+00
    8.754432201385e-08 1.070345751941e-03 6.502494215965e-06 5.153588296890e+03
    0.000000000000e+00-3.539025783539e-08 8.120591388027e-01 1.862645149231e-08
    9.601773355829e-01 2.538750000000e+02-3.041668565225e+00-8.033191757538e-09
    7.464596644698e-11 1.000000000000e+00 2.142000000000e+03 0.000000000000e+00
    2.400000000000e+00 0.000000000000e+00-4.190951585770e-09 3.940000000000e+02
   -7.200000000000e+03 4.000000000000e+00
31 21  1 24  0  0  0.0-9.573576971889e-05-2.273736754432e-12 0.000000000000e+00
    7.000000000000e+00 2.071875000000e+01 4.659122642588e-09-1.299824777159e+00
    8.419156074524e-07 9.979137335904e-03 8.221715688705e-06 5.153726263046e+03
    0.000000000000e+00 9.872019290924e-08 1.852109237018e+00-1.359730958939e-07
    9.560882308553e-01 2.131562500000e+02 2.395927775323e-01-7.959260106560e-09
   -1.692927660089e-10 1.000000000000e+00 2.142000000000e+03 0.000000000000e+00
    2.400000000000e+00 0.000000000000e+00-1.303851604462e-08 7.000000000000e+00
   -7.200000000000e+03 4.000000000000e+00
20 21  1 24  0  0  0.0 5.250261165202e-04-2.273736754432e-13 0.000000000000e+00
    2.700000000000e+01-3.815625000000e+01 4.828415408597e-09-7.942613535220e-01
   -2.060085535049e-06 5.868149455637e-03 9.166076779366e-06 5.153669071198e+03
    0.000000000000e+00-4.470348358154e-08-4.093030278112e-01-2.253800630569e-07
    9.370768189766e-01 1.935937500000e+02 2.834833456638e+00-8.094980045554e-09
    2.682254583813e-10 1.000000000000e+00 2.142000000000e+03 0.000000000000e+00
    2.400000000000e+00 0.000000000000e+00-8.381903171539e-09 2.700000000000e+01
   -7.200000000000e+03 4.000000000000e+00
17 21  1 24  0  0  0.0 3.840457648039e-04 4.774847184308e-12 0.000000000000e+00
    2.500000000000e+01 8.968750000000e+00 4.161959076587e-09 1.896210440045e+00
    1.192092895508e-07 1.359055924695e-02 1.966953277588e-06 5.153536874771e+03
    0.000000000000e+00 1.490116119385e-07-2.303452622973e+00-1.937150955200e-07
    9.829161456942e-01 3.499687500000e+02-1.584775852001e+00-8.004619138803e-09
   -8.786080261224e-11 1.000000000000e+00 2.142000000000e+03 0.000000000000e+00
    2.400000000000e+00 0.000000000000e+00-1.117587089539e-08 2.500000000000e+01
   -7.200000000000e+03 4.000000000000e+00
